{
  "type": "FeatureCollection",
  "features": [
    {
      "type": "Feature",
      "properties": {
        "norad_id": 38001,
        "name": "COSMOS 2251 DEB",
        "group": "cosmos-2251-debris",
        "lat": -63.55432840372713,
        "lon": -12.685238864749023,
        "alt_km": 600.424499809872,
        "timestamp": "2025-12-12T20:43:07.433897+00:00",
        "meta_object_name": "COSMOS 2251 DEB",
        "meta_object_id": "1993-036BRC",
        "meta_epoch": "2025-12-10T21:13:30.070848",
        "meta_mean_motion": 14.79039652,
        "meta_eccentricity": 0.0065474,
        "meta_inclination": 74.0007,
        "meta_ra_of_asc_node": 135.9844,
        "meta_arg_of_pericenter": 285.8073,
        "meta_mean_anomaly": 230.7209,
        "meta_ephemeris_type": 0,
        "meta_classification_type": "U",
        "meta_norad_cat_id": 38001,
        "meta_element_set_no": 999,
        "meta_rev_at_epoch": 74680,
        "meta_bstar": 0.0012082,
        "meta_mean_motion_dot": 9.24e-05,
        "meta_mean_motion_ddot": 0,
        "tle_line1": "1 38001U 93036BRC 25344.88437582  .00009240  00000+0  12082-2 0  9995",
        "tle_line2": "2 38001  74.0007 135.9844 0065474 285.8073 230.7209 14.79039652746809"
      },
      "geometry": {
        "type": "Point",
        "coordinates": [
          -12.685238864749023,
          -63.55432840372713
        ]
      }
    },
    {
      "type": "Feature",
      "properties": {
        "norad_id": 38006,
        "name": "COSMOS 2251 DEB",
        "group": "cosmos-2251-debris",
        "lat": 68.92485728531321,
        "lon": 86.47736858786745,
        "alt_km": 734.7561603085842,
        "timestamp": "2025-12-12T20:43:07.433907+00:00",
        "meta_object_name": "COSMOS 2251 DEB",
        "meta_object_id": "1993-036BRH",
        "meta_epoch": "2025-12-10T03:36:37.956384",
        "meta_mean_motion": 14.45867865,
        "meta_eccentricity": 0.00758537,
        "meta_inclination": 73.8744,
        "meta_ra_of_asc_node": 42.933,
        "meta_arg_of_pericenter": 348.3853,
        "meta_mean_anomaly": 11.555,
        "meta_ephemeris_type": 0,
        "meta_classification_type": "U",
        "meta_norad_cat_id": 38006,
        "meta_element_set_no": 999,
        "meta_rev_at_epoch": 62922,
        "meta_bstar": 0.0047338847,
        "meta_mean_motion_dot": 0.00017443,
        "meta_mean_motion_ddot": 0,
        "tle_line1": "1 38006U 93036BRH 25344.15043931  .00017443  00000+0  47339-2 0  9998",
        "tle_line2": "2 38006  73.8744  42.9330 0075853 348.3853  11.5550 14.45867865629227"
      },
      "geometry": {
        "type": "Point",
        "coordinates": [
          86.47736858786745,
          68.92485728531321
        ]
      }
    },
    {
      "type": "Feature",
      "properties": {
        "norad_id": 38054,
        "name": "COSMOS 2251 DEB",
        "group": "cosmos-2251-debris",
        "lat": 27.27012060390952,
        "lon": 77.06930961715803,
        "alt_km": 1026.3748740520805,
        "timestamp": "2025-12-12T20:43:07.433918+00:00",
        "meta_object_name": "COSMOS 2251 DEB",
        "meta_object_id": "1993-036BRL",
        "meta_epoch": "2025-12-06T19:35:06.065952",
        "meta_mean_motion": 13.62293123,
        "meta_eccentricity": 0.0360398,
        "meta_inclination": 73.9587,
        "meta_ra_of_asc_node": 275.4844,
        "meta_arg_of_pericenter": 254.7432,
        "meta_mean_anomaly": 133.9151,
        "meta_ephemeris_type": 0,
        "meta_classification_type": "U",
        "meta_norad_cat_id": 38054,
        "meta_element_set_no": 999,
        "meta_rev_at_epoch": 67099,
        "meta_bstar": 0.0049752628,
        "meta_mean_motion_dot": 5.934e-05,
        "meta_mean_motion_ddot": 0,
        "tle_line1": "1 38054U 93036BRL 25340.81604243  .00005934  00000+0  49753-2 0  9993",
        "tle_line2": "2 38054  73.9587 275.4844 0360398 254.7432 133.9151 13.62293123670997"
      },
      "geometry": {
        "type": "Point",
        "coordinates": [
          77.06930961715803,
          27.27012060390952
        ]
      }
    },
    {
      "type": "Feature",
      "properties": {
        "norad_id": 38055,
        "name": "COSMOS 2251 DEB",
        "group": "cosmos-2251-debris",
        "lat": 39.414059604959114,
        "lon": 12.884176327787412,
        "alt_km": 679.9604314976004,
        "timestamp": "2025-12-12T20:43:07.433928+00:00",
        "meta_object_name": "COSMOS 2251 DEB",
        "meta_object_id": "1993-036BRM",
        "meta_epoch": "2025-12-11T09:07:57.721152",
        "meta_mean_motion": 14.76955256,
        "meta_eccentricity": 0.00657701,
        "meta_inclination": 74.0089,
        "meta_ra_of_asc_node": 209.4259,
        "meta_arg_of_pericenter": 337.2903,
        "meta_mean_anomaly": 200.444,
        "meta_ephemeris_type": 0,
        "meta_classification_type": "U",
        "meta_norad_cat_id": 38055,
        "meta_element_set_no": 999,
        "meta_rev_at_epoch": 60662,
        "meta_bstar": 0.0014257024,
        "meta_mean_motion_dot": 0.00010385,
        "meta_mean_motion_ddot": 0,
        "tle_line1": "1 38055U 93036BRM 25345.38052918  .00010385  00000+0  14257-2 0  9994",
        "tle_line2": "2 38055  74.0089 209.4259 0065770 337.2903 200.4440 14.76955256606628"
      },
      "geometry": {
        "type": "Point",
        "coordinates": [
          12.884176327787412,
          39.414059604959114
        ]
      }
    },
    {
      "type": "Feature",
      "properties": {
        "norad_id": 38060,
        "name": "COSMOS 2251 DEB",
        "group": "cosmos-2251-debris",
        "lat": -3.033833802119874,
        "lon": -65.79796151751944,
        "alt_km": 654.2645910698056,
        "timestamp": "2025-12-12T20:43:07.433938+00:00",
        "meta_object_name": "COSMOS 2251 DEB",
        "meta_object_id": "1993-036BRS",
        "meta_epoch": "2025-12-11T05:22:06.825504",
        "meta_mean_motion": 14.63841303,
        "meta_eccentricity": 0.00580419,
        "meta_inclination": 74.0431,
        "meta_ra_of_asc_node": 298.2163,
        "meta_arg_of_pericenter": 44.676,
        "meta_mean_anomaly": 315.9062,
        "meta_ephemeris_type": 0,
        "meta_classification_type": "U",
        "meta_norad_cat_id": 38060,
        "meta_element_set_no": 999,
        "meta_rev_at_epoch": 71942,
        "meta_bstar": 0.00092465515,
        "meta_mean_motion_dot": 4.921e-05,
        "meta_mean_motion_ddot": 0,
        "tle_line1": "1 38060U 93036BRS 25345.22369011  .00004921  00000+0  92466-3 0  9996",
        "tle_line2": "2 38060  74.0431 298.2163 0058041  44.6760 315.9062 14.63841303719426"
      },
      "geometry": {
        "type": "Point",
        "coordinates": [
          -65.79796151751944,
          -3.033833802119874
        ]
      }
    },
    {
      "type": "Feature",
      "properties": {
        "norad_id": 38062,
        "name": "COSMOS 2251 DEB",
        "group": "cosmos-2251-debris",
        "lat": -19.99057460626981,
        "lon": -75.7690449029757,
        "alt_km": 586.2062431508475,
        "timestamp": "2025-12-12T20:43:07.433948+00:00",
        "meta_object_name": "COSMOS 2251 DEB",
        "meta_object_id": "1993-036BRU",
        "meta_epoch": "2025-12-12T07:01:37.512192",
        "meta_mean_motion": 14.94806818,
        "meta_eccentricity": 0.00123829,
        "meta_inclination": 74.0077,
        "meta_ra_of_asc_node": 291.3712,
        "meta_arg_of_pericenter": 60.6656,
        "meta_mean_anomaly": 90.0551,
        "meta_ephemeris_type": 0,
        "meta_classification_type": "U",
        "meta_norad_cat_id": 38062,
        "meta_element_set_no": 999,
        "meta_rev_at_epoch": 63023,
        "meta_bstar": 0.0035861639,
        "meta_mean_motion_dot": 0.00039272,
        "meta_mean_motion_ddot": 0,
        "tle_line1": "1 38062U 93036BRU 25346.29279528  .00039272  00000+0  35862-2 0  9992",
        "tle_line2": "2 38062  74.0077 291.3712 0012382  60.6656  90.0551 14.94806818630239"
      },
      "geometry": {
        "type": "Point",
        "coordinates": [
          -75.7690449029757,
          -19.99057460626981
        ]
      }
    },
    {
      "type": "Feature",
      "properties": {
        "norad_id": 38064,
        "name": "COSMOS 2251 DEB",
        "group": "cosmos-2251-debris",
        "lat": -57.12833651350724,
        "lon": -29.777955957946777,
        "alt_km": 678.2635898962644,
        "timestamp": "2025-12-12T20:43:07.433959+00:00",
        "meta_object_name": "COSMOS 2251 DEB",
        "meta_object_id": "1993-036BRW",
        "meta_epoch": "2025-12-11T15:35:10.141152",
        "meta_mean_motion": 14.5628474,
        "meta_eccentricity": 0.00474911,
        "meta_inclination": 74.0221,
        "meta_ra_of_asc_node": 126.2067,
        "meta_arg_of_pericenter": 246.0166,
        "meta_mean_anomaly": 113.6022,
        "meta_ephemeris_type": 0,
        "meta_classification_type": "U",
        "meta_norad_cat_id": 38064,
        "meta_element_set_no": 999,
        "meta_rev_at_epoch": 71849,
        "meta_bstar": 0.001607911,
        "meta_mean_motion_dot": 7.206e-05,
        "meta_mean_motion_ddot": 0,
        "tle_line1": "1 38064U 93036BRW 25345.64942293  .00007206  00000+0  16079-2 0  9999",
        "tle_line2": "2 38064  74.0221 126.2067 0047491 246.0166 113.6022 14.56284740718498"
      },
      "geometry": {
        "type": "Point",
        "coordinates": [
          -29.777955957946777,
          -57.12833651350724
        ]
      }
    }
  ]
}